STARLINK-31471          
1 59568U 24076E   24130.91668981 -.00218711  00000+0 -15299-2 0  9999
2 59568  42.9997 225.4443 0001490 267.4449 188.8128 15.73932075  3594
STARLINK-31470          
1 59569U 24076F   24130.91668981 -.00140673  00000+0 -97605-3 0  9993
2 59569  42.9996 225.4394 0001674 253.3793 204.9108 15.73879114  3625
STARLINK-31587          
1 59570U 24076G   24130.91668981 -.00224225  00000+0 -15693-2 0  9997
2 59570  42.9996 225.4344 0001684 298.3339 161.9310 15.73935214  3753
STARLINK-31606          
1 59571U 24076H   24130.91668981  .00025714  00000+0  17965-3 0  9993
2 59571  42.9996 225.4291 0001756 297.9050 164.4690 15.73758107  3584
STARLINK-31666          
1 59572U 24076J   24130.91668981 -.00148743  00000+0 -10328-2 0  9999
2 59572  42.9994 225.4240 0001871 308.4491 155.8394 15.73887590  3755
STARLINK-31683          
1 59573U 24076K   24130.91668981 -.00033633  00000+0 -22859-3 0  9994
2 59573  42.9997 225.4208 0001568 284.7812 181.5467 15.73816563  3758
STARLINK-31751          
1 59574U 24076L   24130.91668981 -.00018982  00000+0 -12785-3 0  9992
2 59574  42.9992 225.4081 0002928 275.3587 195.1062 15.73726129  3782
STARLINK-31510          
1 59575U 24076M   24130.91668981 -.00020982  00000+0 -14136-3 0  9998
2 59575  42.9996 225.4142 0002808 250.1753 218.2061 15.73781444  3752
STARLINK-31663          
1 59576U 24076N   24130.91668981 -.00098850  00000+0 -68180-3 0  9996
2 59576  42.9993 225.3984 0002029 233.8762 240.4298 15.73868127  3782
STARLINK-31692          
1 59577U 24076P   24130.91668981  .00006844  00000+0  50180-4 0  9999
2 59577  42.9992 225.4033 0002751 297.8100 174.5197 15.73809182  3754
STARLINK-31685          
1 59578U 24076Q   24130.91668981 -.00050496  00000+0 -34529-3 0  9992
2 59578  42.9991 225.3930 0001349 252.4506 223.8778 15.73832066  3769
STARLINK-31686          
1 59579U 24076R   24130.91668981 -.00150663  00000+0 -10464-2 0  9991
2 59579  42.9990 225.3827 0001704 283.2300 197.0858 15.73888505  3774
STARLINK-31668          
1 59580U 24076S   24130.91668981 -.00167673  00000+0 -11692-2 0  9996
2 59580  42.9991 225.3878 0001057 252.4422 225.9888 15.73852240  3756
STARLINK-31690          
1 59581U 24076T   24130.91668981 -.00038759  00000+0 -26433-3 0  9999
2 59581  42.9990 225.3777 0001532 289.9489 192.4366 15.73795023  3765
STARLINK-31701          
1 59582U 24076U   24130.91668981 -.00088325  00000+0 -60874-3 0  9991
2 59582  42.9992 225.3677 0001603 273.3108 213.0349 15.73845358  3624
STARLINK-31697          
1 59583U 24076V   24130.91668981 -.00074847  00000+0 -51515-3 0  9998
2 59583  42.9990 225.3730 0002241 261.3980 222.9849 15.73815378  3596
STARLINK-31662          
1 59584U 24076W   24130.91668981 -.00124495  00000+0 -86197-3 0  9998
2 59584  42.9991 225.3630 0001619 291.7546 196.5787 15.73874030  3777
STARLINK-31702          
1 59585U 24076X   24130.91668981 -.00176509  00000+0 -12319-2 0  9996
2 59585  42.9993 225.3576 0001718 284.5779 205.8493 15.73856740  3773
STARLINK-31704          
1 59586U 24076Y   24130.91668981 -.00099378  00000+0 -68559-3 0  9993
2 59586  42.9992 225.3530 0001968 263.0783 229.2552 15.73865333  3782
NEONSAT-1               
1 59587U 24077A   24130.93996855  .00013537  00000+0  70076-3 0  9999
2 59587  97.4131 211.3427 0015167 217.4585 142.5592 15.16237953  2421
ACS3                    
1 59588U 24077B   24130.76671061  .00000072  00000+0  11947-3 0  9992
2 59588  97.4070 207.8686 0019991 195.8394 164.2134 13.67675348  2158
ELECTRON KICK STAGE R/B 
1 59590U 24077D   24130.80735882  .00013131  00000+0  13941-2 0  9997
2 59590  97.3954 209.6053 0387146 155.4667 206.5509 14.46910864  2287
SHENZHOU-18 (SZ-18)     
1 59591U 24078A   24130.51681405  .00047203  00000+0  49601-3 0  9998
2 59591  41.4680 319.3478 0003846 311.9096  48.1415 15.63498369173041
1998-067WP              
1 59596U 98067WP  24130.43900766  .00081660  00000+0  11947-2 0  9993
2 59596  51.6352 147.1171 0005204  76.5295 283.6276 15.54873399  3310
1998-067WQ              
1 59597U 98067WQ  24130.31021658  .00077639  00000+0  11361-2 0  9996
2 59597  51.6360 147.7578 0005240  75.6304 284.5269 15.54889781  3266
2024-079A               
1 59598U 24079A   24122.82359769  .00000076  00000+0  00000+0 0  9999
2 59598  54.6583 122.7856 0009775 266.2586  83.2239  1.72803132    63
FALCON 9 R/B            
1 59599U 24079B   24130.92921473  .00000033  00000+0  00000+0 0  9990
2 59599  54.6640 122.5502 0001397 280.1089  80.7823  1.73014309   241
2024-079C               
1 59600U 24079C   24124.56961717  .00000077  00000+0  00000+0 0  9999
2 59600  54.6619 122.7361 0005848 325.5920  34.3918  1.73026194   153
STARLINK-31770          
1 59601U 24080A   24130.91668981 -.00909957  00000+0 -62266-2 0  9997
2 59601  43.0039 258.8389 0001838 284.3809  87.9870 15.76320860  2985
STARLINK-31778          
1 59602U 24080B   24130.91668981 -.00916111  00000+0 -62747-2 0  9992
2 59602  43.0039 258.8335 0001545 287.6935  86.7256 15.76319260  2985
STARLINK-31776          
1 59603U 24080C   24130.91668981 -.00923625  00000+0 -63392-2 0  9998
2 59603  43.0037 258.8283 0001731 286.8239  89.7727 15.76291854  2930
STARLINK-31765          
1 59604U 24080D   24130.91668981 -.00933757  00000+0 -64227-2 0  9994
2 59604  43.0036 258.8227 0001658 282.8313  95.9122 15.76271691  2985
STARLINK-31767          
1 59605U 24080E   24130.91668981 -.00941755  00000+0 -64886-2 0  9993
2 59605  43.0038 258.8172 0001561 280.3683 100.4868 15.76257075  2971
STARLINK-31782          
1 59606U 24080F   24130.91668981 -.00950602  00000+0 -65662-2 0  9998
2 59606  43.0037 258.8117 0001536 285.0031  98.0433 15.76224848  2984
STARLINK-31755          
1 59607U 24080G   24130.91668981 -.00958367  00000+0 -66311-2 0  9997
2 59607  43.0035 258.8061 0001844 284.6867 100.4882 15.76204983  2989
STARLINK-31585          
1 59608U 24080H   24130.91668981 -.00965016  00000+0 -66888-2 0  9996
2 59608  43.0036 258.8007 0001798 285.3816 101.9184 15.76184649  2988
STARLINK-31667          
1 59609U 24080J   24130.91668981 -.00972300  00000+0 -67488-2 0  9998
2 59609  43.0035 258.7955 0001793 285.0106 104.3749 15.76173301  2979
STARLINK-31729          
1 59610U 24080K   24130.91668981 -.00993909  00000+0 -67950-2 0  9992
2 59610  43.0034 258.7903 0001559 288.8231 102.6229 15.76166352  2975
STARLINK-31448          
1 59611U 24080L   24130.91668981 -.01006852  00000+0 -69079-2 0  9990
2 59611  43.0035 258.7845 0001563 284.7717 108.9313 15.76116655  2986
STARLINK-31748          
1 59612U 24080M   24130.91668981  .00246635  00000+0  12479-2 0  9995
2 59612  43.0037 258.7520 0002039 257.6464 148.9461 15.80072046  2939
STARLINK-31746          
1 59613U 24080N   24130.91668981 -.00901994  00000+0 -47463-2 0  9995
2 59613  43.0029 258.4142 0001674 286.9385 253.7938 15.82023337  2978
STARLINK-31762          
1 59614U 24080P   24130.91668981 -.01020199  00000+0 -70182-2 0  9990
2 59614  43.0032 258.7737 0001779 288.6843 109.2037 15.76085427  2987
STARLINK-31761          
1 59615U 24080Q   24130.91668981 -.01037275  00000+0 -71640-2 0  9994
2 59615  43.0029 258.7628 0001571 290.0689 112.0687 15.76037980  2937
STARLINK-31768          
1 59616U 24080R   24130.91668981 -.01049442  00000+0 -72724-2 0  9998
2 59616  43.0031 258.7571 0001538 288.2722 116.0787 15.75991148  2971
STARLINK-31769          
1 59617U 24080S   24130.91668981 -.01061116  00000+0 -73759-2 0  9990
2 59617  43.0029 258.7518 0001554 285.3284 121.2073 15.75949197  2972
STARLINK-31784          
1 59618U 24080T   24130.91668981 -.01069054  00000+0 -74445-2 0  9993
2 59618  43.0031 258.7466 0001895 287.5853 121.0673 15.75923742  2930
STARLINK-31777          
1 59619U 24080U   24130.91668981 -.01076946  00000+0 -75131-2 0  9995
2 59619  43.0029 258.7409 0001942 287.1416 123.6138 15.75900825  2985
STARLINK-31771          
1 59620U 24080V   24130.91668981 -.01084109  00000+0 -75738-2 0  9990
2 59620  43.0028 258.7360 0001713 286.8278 125.9943 15.75888066  2936
STARLINK-31758          
1 59621U 24080W   24130.91668981 -.01094519  00000+0 -76651-2 0  9992
2 59621  43.0030 258.7307 0001516 287.4646 127.4817 15.75859907  2937
STARLINK-31774          
1 59622U 24080X   24130.91668981 -.01102088  00000+0 -77348-2 0  9998
2 59622  43.0029 258.7254 0001558 289.3666 127.7018 15.75828672  2971
STARLINK-31763          
1 59623U 24080Y   24130.91668981 -.01109658  00000+0 -77958-2 0  9996
2 59623  43.0031 258.7200 0001524 285.3573 133.7459 15.75824123  2986
SZ-17 MODULE            
1 59624U 23164C   24130.84312436  .00039653  00000+0  43711-3 0  9997
2 59624  41.4780 317.4502 0005617 336.8837  23.1749 15.62325245  1531
LEGION 1                
1 59625U 24081A   24130.88258813  .00011366  00000+0  59542-3 0  9999
2 59625  97.5773 202.0046 0004820 133.6196 226.5437 15.15955798  1076
LEGION 2                
1 59626U 24081B   24130.94753012  .00012305  00000+0  64015-3 0  9993
2 59626  97.5773 202.0719 0003909 127.3449 232.8140 15.16184942  1080
CZ-5 R/B                
1 59628U 24083B   24124.60000000  .00000000  00000+0  00000+0 0  9994
2 59628  23.1500 348.9340 9764692 239.8920   3.9470  0.06022200    38
ICUBE-QAMAR (ICUBE-Q)   
1 59629U 24083C   24124.68000000 -.00194999  15823-2  00000+0 0  9997
2 59629  23.0390 348.5400 9762994 239.7870   5.9940  0.06350648    05
STARLINK-31749          
1 59631U 24082A   24130.91668981 -.00875247  24116-3 -23153-2 0  9996
2 59631  43.0034 355.4959 0002126 277.8600 130.3064 15.93749569  1816
STARLINK-31781          
1 59632U 24082B   24130.91668981 -.00592825  12507-3 -12181-2 0  9995
2 59632  43.0032 355.4174 0004593 271.5078 167.4438 15.98296351  2070
